*******************************************************************************
Ephemeris / PORT_LOGIN Sat Apr 12 20:41:17 2014 Pasadena, USA    / Horizons
*******************************************************************************
Target body name: 433 Eros (1898 DQ)              {source: JPL#437}
Center body name: Earth (399)                     {source: DE-0431LE-0431}
Center-site name: GEOCENTRIC
*******************************************************************************
Start time      : A.D. 2014-Apr-12 00:00:00.0000 UT
Stop  time      : A.D. 2014-Apr-14 00:00:00.0000 UT
Step-size       : 10 minutes
*******************************************************************************
Target pole/equ : No model available              {East-longitude -}
Target radii    : 17.0 x 5.5 x 5.5 km             {Equator, meridian, pole}
Center geodetic : 0.00000000,0.00000000,0.0000000 {E-lon(deg),Lat(deg),Alt(km)}
Center cylindric: 0.00000000,0.00000000,0.0000000 {E-lon(deg),Dxy(km),Dz(km)}
Center pole/equ : High-precision EOP model        {East-longitude +}
Center radii    : 6378.1 x 6378.1 x 6356.8 km     {Equator, meridian, pole}
Target primary  : Sun
Vis. interferer : MOON (R_eq= 1737.400) km        {source: DE-0431LE-0431}
Rel. light bend : Sun, EARTH                      {source: DE-0431LE-0431}
Rel. lght bnd GM: 1.3271E+11, 3.9860E+05 km^3/s^2
Small-body perts: Yes                             {source: SB431-BIG16}
Atmos refraction: NO (AIRLESS)
RA format       : DEG
Time format     : BOTH
EOP file        : eop.140411.p140703
EOP coverage    : DATA-BASED 1962-JAN-20 TO 2014-APR-11. PREDICTS-> 2014-JUL-02
Units conversion: 1 au= 149597870.700 km, c= 299792.458 km/s, 1 day= 86400.0 s
Table cut-offs 1: Elevation (-90.0deg=NO ),Airmass (>38.000=NO), Daylight (NO )
Table cut-offs 2: Solar Elongation (  0.0,180.0=NO ),Local Hour Angle( 0.0=NO )
Table format    : Comma Separated Values (spreadsheet)
*******************************************************************************
Initial FK5/J2000.0 heliocentric ecliptic osculating elements (au, days, deg.):
  EPOCH=  2451960.5 ! 2001-Feb-20.00 (CT)          Residual RMS= .39498
   EC= .2229072655216344   QR= 1.133196712556323   TP= 2452085.0842611273
   OM= 304.4109367169919   W=  178.6283645046248   IN= 10.82945113287385
Asteroid physical parameters (km, seconds, rotational period in hours):
   GM= .0004463            RAD= 8.42               ROTPER= 5.27
   H= 11.16                G= .460                 B-V= .921
                           ALBEDO= .250            STYP= S
**********************************************************************************************
 Date__(UT)__HR:MN, Date_________JDUT, , ,R.A._(ICRF/J2000.0), DEC_(ICRF/J2000.0),   1-way_LT,
**********************************************************************************************
$$SOE
 2014-Apr-13 05:40, 2456760.736111111, , ,287.5395174,-36.4312384,   8.859027,
 2014-Apr-13 05:50, 2456760.743055556, , ,287.5421914,-36.4312794,   8.858654,
 2014-Apr-13 06:00, 2456760.750000000, , ,287.5448650,-36.4313205,   8.858281,
 2014-Apr-13 06:10, 2456760.756944444, , ,287.5475380,-36.4313616,   8.857909,
 2014-Apr-13 06:20, 2456760.763888889, , ,287.5502107,-36.4314026,   8.857536,
 2014-Apr-13 06:30, 2456760.770833333, , ,287.5528828,-36.4314437,   8.857163,
 2014-Apr-13 06:40, 2456760.777777778, , ,287.5555545,-36.4314847,   8.856790,
 2014-Apr-13 06:50, 2456760.784722222, , ,287.5582258,-36.4315257,   8.856418,
 2014-Apr-13 07:00, 2456760.791666667, , ,287.5608966,-36.4315667,   8.856045,
 2014-Apr-13 07:10, 2456760.798611111, , ,287.5635669,-36.4316078,   8.855672,
 2014-Apr-13 07:20, 2456760.805555556, , ,287.5662368,-36.4316488,   8.855299,
 2014-Apr-13 07:30, 2456760.812500000, , ,287.5689062,-36.4316898,   8.854926,
 2014-Apr-13 07:40, 2456760.819444444, , ,287.5715752,-36.4317307,   8.854554,
 2014-Apr-13 07:50, 2456760.826388889, , ,287.5742437,-36.4317717,   8.854181,
 2014-Apr-13 08:00, 2456760.833333333, , ,287.5769117,-36.4318127,   8.853808,
 2014-Apr-13 08:10, 2456760.840277778, , ,287.5795793,-36.4318537,   8.853435,
 2014-Apr-13 08:20, 2456760.847222222, , ,287.5822464,-36.4318946,   8.853062,
 2014-Apr-13 08:30, 2456760.854166667, , ,287.5849131,-36.4319356,   8.852689,
 2014-Apr-13 08:40, 2456760.861111111, , ,287.5875793,-36.4319765,   8.852316,
 2014-Apr-13 08:50, 2456760.868055556, , ,287.5902451,-36.4320174,   8.851944,
 2014-Apr-13 09:00, 2456760.875000000, , ,287.5929104,-36.4320584,   8.851571,
 2014-Apr-13 09:10, 2456760.881944444, , ,287.5955752,-36.4320993,   8.851198,
 2014-Apr-13 09:20, 2456760.888888889, , ,287.5982396,-36.4321402,   8.850825,
 2014-Apr-13 09:30, 2456760.895833333, , ,287.6009035,-36.4321811,   8.850452,
 2014-Apr-13 09:40, 2456760.902777778, , ,287.6035670,-36.4322220,   8.850079,
 2014-Apr-13 09:50, 2456760.909722222, , ,287.6062300,-36.4322629,   8.849706,
 2014-Apr-13 10:00, 2456760.916666667, , ,287.6088926,-36.4323037,   8.849333,
 2014-Apr-13 10:10, 2456760.923611111, , ,287.6115547,-36.4323446,   8.848960,
 2014-Apr-13 10:20, 2456760.930555556, , ,287.6142163,-36.4323855,   8.848587,
 2014-Apr-13 10:30, 2456760.937500000, , ,287.6168775,-36.4324263,   8.848214,
 2014-Apr-13 10:40, 2456760.944444444, , ,287.6195382,-36.4324672,   8.847841,
 2014-Apr-13 10:50, 2456760.951388889, , ,287.6221985,-36.4325080,   8.847468,
 2014-Apr-13 11:00, 2456760.958333333, , ,287.6248583,-36.4325488,   8.847095,
 2014-Apr-13 11:10, 2456760.965277778, , ,287.6275176,-36.4325897,   8.846722,
 2014-Apr-13 11:20, 2456760.972222222, , ,287.6301765,-36.4326305,   8.846349,
 2014-Apr-13 11:30, 2456760.979166667, , ,287.6328350,-36.4326713,   8.845976,
 2014-Apr-13 11:40, 2456760.986111111, , ,287.6354929,-36.4327121,   8.845603,
 2014-Apr-13 11:50, 2456760.993055556, , ,287.6381504,-36.4327529,   8.845230,
 2014-Apr-13 12:00, 2456761.000000000, , ,287.6408075,-36.4327937,   8.844857,
 2014-Apr-13 12:10, 2456761.006944444, , ,287.6434641,-36.4328344,   8.844484,
 2014-Apr-13 12:20, 2456761.013888889, , ,287.6461202,-36.4328752,   8.844111,
 2014-Apr-13 12:30, 2456761.020833333, , ,287.6487759,-36.4329160,   8.843738,
 2014-Apr-13 12:40, 2456761.027777778, , ,287.6514311,-36.4329567,   8.843365,
 2014-Apr-13 12:50, 2456761.034722222, , ,287.6540859,-36.4329975,   8.842992,
 2014-Apr-13 13:00, 2456761.041666667, , ,287.6567402,-36.4330382,   8.842619,
 2014-Apr-13 13:10, 2456761.048611111, , ,287.6593940,-36.4330789,   8.842246,
 2014-Apr-13 13:20, 2456761.055555556, , ,287.6620474,-36.4331197,   8.841873,
 2014-Apr-13 13:30, 2456761.062500000, , ,287.6647003,-36.4331604,   8.841500,
 2014-Apr-13 13:40, 2456761.069444444, , ,287.6673528,-36.4332011,   8.841127,
 2014-Apr-13 13:50, 2456761.076388889, , ,287.6700048,-36.4332418,   8.840754,
 2014-Apr-13 14:00, 2456761.083333333, , ,287.6726564,-36.4332825,   8.840381,
 2014-Apr-13 14:10, 2456761.090277778, , ,287.6753075,-36.4333232,   8.840007,
 2014-Apr-13 14:20, 2456761.097222222, , ,287.6779581,-36.4333639,   8.839634,
 2014-Apr-13 14:30, 2456761.104166667, , ,287.6806083,-36.4334045,   8.839261,
 2014-Apr-13 14:40, 2456761.111111111, , ,287.6832580,-36.4334452,   8.838888,
 2014-Apr-13 14:50, 2456761.118055556, , ,287.6859072,-36.4334859,   8.838515,
 2014-Apr-13 15:00, 2456761.125000000, , ,287.6885560,-36.4335265,   8.838142,
 2014-Apr-13 15:10, 2456761.131944444, , ,287.6912043,-36.4335672,   8.837769,
 2014-Apr-13 15:20, 2456761.138888889, , ,287.6938522,-36.4336078,   8.837395,
 2014-Apr-13 15:30, 2456761.145833333, , ,287.6964996,-36.4336484,   8.837022,
 2014-Apr-13 15:40, 2456761.152777778, , ,287.6991466,-36.4336891,   8.836649,
 2014-Apr-13 15:50, 2456761.159722222, , ,287.7017931,-36.4337297,   8.836276,
 2014-Apr-13 16:00, 2456761.166666667, , ,287.7044391,-36.4337703,   8.835903,
 2014-Apr-13 16:10, 2456761.173611111, , ,287.7070847,-36.4338109,   8.835529,
 2014-Apr-13 16:20, 2456761.180555556, , ,287.7097298,-36.4338515,   8.835156,
 2014-Apr-13 16:30, 2456761.187500000, , ,287.7123744,-36.4338921,   8.834783,
 2014-Apr-13 16:40, 2456761.194444444, , ,287.7150186,-36.4339327,   8.834410,
 2014-Apr-13 16:50, 2456761.201388889, , ,287.7176624,-36.4339732,   8.834036,
 2014-Apr-13 17:00, 2456761.208333333, , ,287.7203056,-36.4340138,   8.833663,
 2014-Apr-13 17:10, 2456761.215277778, , ,287.7229485,-36.4340544,   8.833290,
 2014-Apr-13 17:20, 2456761.222222222, , ,287.7255908,-36.4340949,   8.832917,
 2014-Apr-13 17:30, 2456761.229166667, , ,287.7282327,-36.4341355,   8.832543,
 2014-Apr-13 17:40, 2456761.236111111, , ,287.7308741,-36.4341760,   8.832170,
 2014-Apr-13 17:50, 2456761.243055556, , ,287.7335151,-36.4342165,   8.831797,
 2014-Apr-13 18:00, 2456761.250000000, , ,287.7361556,-36.4342571,   8.831424,
 2014-Apr-13 18:10, 2456761.256944444, , ,287.7387957,-36.4342976,   8.831050,
 2014-Apr-13 18:20, 2456761.263888889, , ,287.7414353,-36.4343381,   8.830677,
 2014-Apr-13 18:30, 2456761.270833333, , ,287.7440744,-36.4343786,   8.830304,
 2014-Apr-13 18:40, 2456761.277777778, , ,287.7467131,-36.4344191,   8.829930,
 2014-Apr-13 18:50, 2456761.284722222, , ,287.7493513,-36.4344596,   8.829557,
 2014-Apr-13 19:00, 2456761.291666667, , ,287.7519890,-36.4345001,   8.829184,
 2014-Apr-13 19:10, 2456761.298611111, , ,287.7546263,-36.4345406,   8.828810,
 2014-Apr-13 19:20, 2456761.305555556, , ,287.7572631,-36.4345811,   8.828437,
 2014-Apr-13 19:30, 2456761.312500000, , ,287.7598995,-36.4346215,   8.828064,
 2014-Apr-13 19:40, 2456761.319444444, , ,287.7625354,-36.4346620,   8.827690,
 2014-Apr-13 19:50, 2456761.326388889, , ,287.7651709,-36.4347024,   8.827317,
 2014-Apr-13 20:00, 2456761.333333333, , ,287.7678059,-36.4347429,   8.826943,
 2014-Apr-13 20:10, 2456761.340277778, , ,287.7704404,-36.4347833,   8.826570,
 2014-Apr-13 20:20, 2456761.347222222, , ,287.7730744,-36.4348238,   8.826197,
$$EOE
**********************************************************************************************